[{"OBJECT_NAME":"STARLINK-34909","OBJECT_ID":"2025-191Y","EPOCH":"2026-03-09T15:21:20.513664","MEAN_MOTION":15.05650911,"ECCENTRICITY":0.0002553,"INCLINATION":97.6021,"RA_OF_ASC_NODE":301.5048,"ARG_OF_PERICENTER":79.2579,"MEAN_ANOMALY":280.8935,"EPHEMERIS_TYPE":0,"CLASSIFICATION_TYPE":"U","NORAD_CAT_ID":65401,"ELEMENT_SET_NO":999,"REV_AT_EPOCH":3027,"BSTAR":0.00036068,"MEAN_MOTION_DOT":5.148e-5,"MEAN_MOTION_DDOT":0},{"OBJECT_NAME":"HELIOS 1A","OBJECT_ID":"1995-033A","EPOCH":"2026-03-09T15:20:38.403168","MEAN_MOTION":15.05208405,"ECCENTRICITY":0.0012543,"INCLINATION":98.2085,"RA_OF_ASC_NODE":312.7113,"ARG_OF_PERICENTER":11.1866,"MEAN_ANOMALY":348.9636,"EPHEMERIS_TYPE":0,"CLASSIFICATION_TYPE":"U","NORAD_CAT_ID":23605,"ELEMENT_SET_NO":999,"REV_AT_EPOCH":65318,"BSTAR":0.00025897,"MEAN_MOTION_DOT":3.631e-5,"MEAN_MOTION_DDOT":0}]
